{
  "type": "FeatureCollection",
  "features": [
    {
      "type": "Feature",
      "properties": {
        "name": "Nagpur Metro - Blue Line (East-West Corridor)",
        "line": "Blue Line",
        "color": "#00aaff",
        "from": "Lokmanya Nagar",
        "to": "Prajapati Nagar",
        "points": 310
      },
      "geometry": {
        "type": "LineString",
        "coordinates": [
          [
            79.00176,
            21.11079
          ],
          [
            79.00199,
            21.11093
          ],
          [
            79.0021,
            21.111
          ],
          [
            79.00219,
            21.11105
          ],
          [
            79.00237,
            21.11115
          ],
          [
            79.00267,
            21.11129
          ],
          [
            79.00287,
            21.11138
          ],
          [
            79.00341,
            21.11161
          ],
          [
            79.00369,
            21.11173
          ],
          [
            79.00456,
            21.11212
          ],
          [
            79.00697,
            21.11316
          ],
          [
            79.00786,
            21.11355
          ],
          [
            79.00863,
            21.11388
          ],
          [
            79.01033,
            21.11463
          ],
          [
            79.01056,
            21.11474
          ],
          [
            79.01076,
            21.11485
          ],
          [
            79.01104,
            21.11503
          ],
          [
            79.01121,
            21.11515
          ],
          [
            79.01145,
            21.11532
          ],
          [
            79.0119,
            21.11566
          ],
          [
            79.01262,
            21.11618
          ],
          [
            79.01301,
            21.11648
          ],
          [
            79.01318,
            21.1166
          ],
          [
            79.01339,
            21.11676
          ],
          [
            79.01429,
            21.11741
          ],
          [
            79.01445,
            21.11752
          ],
          [
            79.01455,
            21.11759
          ],
          [
            79.0147,
            21.11765
          ],
          [
            79.0148,
            21.11769
          ],
          [
            79.01492,
            21.11772
          ],
          [
            79.01504,
            21.11774
          ],
          [
            79.01518,
            21.11775
          ],
          [
            79.01544,
            21.11774
          ],
          [
            79.01619,
            21.11772
          ],
          [
            79.01648,
            21.11769
          ],
          [
            79.01664,
            21.11769
          ],
          [
            79.01685,
            21.1177
          ],
          [
            79.01707,
            21.11773
          ],
          [
            79.01726,
            21.11778
          ],
          [
            79.01749,
            21.11786
          ],
          [
            79.01909,
            21.11859
          ],
          [
            79.01948,
            21.11877
          ],
          [
            79.02092,
            21.11943
          ],
          [
            79.02163,
            21.11974
          ],
          [
            79.02216,
            21.11998
          ],
          [
            79.02255,
            21.12015
          ],
          [
            79.02279,
            21.12024
          ],
          [
            79.02309,
            21.12032
          ],
          [
            79.02353,
            21.12041
          ],
          [
            79.0241,
            21.12051
          ],
          [
            79.02431,
            21.12055
          ],
          [
            79.02477,
            21.12063
          ],
          [
            79.02793,
            21.12122
          ],
          [
            79.02876,
            21.12138
          ],
          [
            79.02942,
            21.1215
          ],
          [
            79.02998,
            21.12161
          ],
          [
            79.0305,
            21.12171
          ],
          [
            79.03125,
            21.12184
          ],
          [
            79.03214,
            21.122
          ],
          [
            79.03416,
            21.12236
          ],
          [
            79.03489,
            21.12247
          ],
          [
            79.03528,
            21.12254
          ],
          [
            79.0375,
            21.12295
          ],
          [
            79.03872,
            21.12317
          ],
          [
            79.03942,
            21.12329
          ],
          [
            79.03961,
            21.12332
          ],
          [
            79.03984,
            21.12333
          ],
          [
            79.04003,
            21.12334
          ],
          [
            79.04084,
            21.12332
          ],
          [
            79.0416,
            21.1233
          ],
          [
            79.04205,
            21.1233
          ],
          [
            79.0424,
            21.12328
          ],
          [
            79.04273,
            21.12326
          ],
          [
            79.04293,
            21.12326
          ],
          [
            79.0432,
            21.12328
          ],
          [
            79.04336,
            21.12332
          ],
          [
            79.04354,
            21.12338
          ],
          [
            79.04367,
            21.12345
          ],
          [
            79.04382,
            21.12356
          ],
          [
            79.04398,
            21.12371
          ],
          [
            79.04408,
            21.12382
          ],
          [
            79.04422,
            21.12397
          ],
          [
            79.04444,
            21.12423
          ],
          [
            79.04459,
            21.12443
          ],
          [
            79.04467,
            21.12456
          ],
          [
            79.04476,
            21.1247
          ],
          [
            79.04484,
            21.12489
          ],
          [
            79.04489,
            21.12502
          ],
          [
            79.04494,
            21.12519
          ],
          [
            79.04499,
            21.12538
          ],
          [
            79.04505,
            21.12562
          ],
          [
            79.04518,
            21.12619
          ],
          [
            79.04527,
            21.12658
          ],
          [
            79.04543,
            21.12728
          ],
          [
            79.04576,
            21.12869
          ],
          [
            79.04582,
            21.12892
          ],
          [
            79.04593,
            21.12943
          ],
          [
            79.04609,
            21.13007
          ],
          [
            79.04613,
            21.1302
          ],
          [
            79.04616,
            21.13029
          ],
          [
            79.0462,
            21.13037
          ],
          [
            79.04625,
            21.13045
          ],
          [
            79.0463,
            21.13053
          ],
          [
            79.04637,
            21.1306
          ],
          [
            79.04643,
            21.13067
          ],
          [
            79.04651,
            21.13073
          ],
          [
            79.04659,
            21.13079
          ],
          [
            79.04668,
            21.13084
          ],
          [
            79.04678,
            21.13089
          ],
          [
            79.04688,
            21.13093
          ],
          [
            79.04698,
            21.13095
          ],
          [
            79.04708,
            21.13097
          ],
          [
            79.04719,
            21.13099
          ],
          [
            79.04729,
            21.13099
          ],
          [
            79.0474,
            21.13098
          ],
          [
            79.04753,
            21.13096
          ],
          [
            79.0478,
            21.1309
          ],
          [
            79.04807,
            21.13083
          ],
          [
            79.04848,
            21.13073
          ],
          [
            79.04872,
            21.13069
          ],
          [
            79.04898,
            21.13068
          ],
          [
            79.04942,
            21.13071
          ],
          [
            79.04967,
            21.13076
          ],
          [
            79.04996,
            21.13083
          ],
          [
            79.05167,
            21.13127
          ],
          [
            79.05196,
            21.13136
          ],
          [
            79.05211,
            21.13142
          ],
          [
            79.05225,
            21.13148
          ],
          [
            79.05301,
            21.13189
          ],
          [
            79.05369,
            21.13228
          ],
          [
            79.05425,
            21.1326
          ],
          [
            79.05481,
            21.1329
          ],
          [
            79.05521,
            21.13315
          ],
          [
            79.05544,
            21.13328
          ],
          [
            79.05661,
            21.13395
          ],
          [
            79.05747,
            21.13442
          ],
          [
            79.05786,
            21.13465
          ],
          [
            79.05852,
            21.13501
          ],
          [
            79.05878,
            21.13515
          ],
          [
            79.05916,
            21.13534
          ],
          [
            79.05942,
            21.13545
          ],
          [
            79.05996,
            21.13568
          ],
          [
            79.06032,
            21.13581
          ],
          [
            79.06075,
            21.13595
          ],
          [
            79.06124,
            21.1361
          ],
          [
            79.06165,
            21.13619
          ],
          [
            79.06208,
            21.13627
          ],
          [
            79.06479,
            21.13671
          ],
          [
            79.06525,
            21.13679
          ],
          [
            79.06566,
            21.1369
          ],
          [
            79.06712,
            21.13734
          ],
          [
            79.06893,
            21.13788
          ],
          [
            79.06943,
            21.13804
          ],
          [
            79.0701,
            21.1383
          ],
          [
            79.07077,
            21.13855
          ],
          [
            79.07101,
            21.13865
          ],
          [
            79.07151,
            21.13881
          ],
          [
            79.07233,
            21.13906
          ],
          [
            79.07275,
            21.13917
          ],
          [
            79.07401,
            21.13958
          ],
          [
            79.07446,
            21.13971
          ],
          [
            79.07483,
            21.13979
          ],
          [
            79.07536,
            21.13991
          ],
          [
            79.07582,
            21.14004
          ],
          [
            79.07644,
            21.14024
          ],
          [
            79.07688,
            21.14038
          ],
          [
            79.07783,
            21.1407
          ],
          [
            79.07824,
            21.14084
          ],
          [
            79.07867,
            21.14098
          ],
          [
            79.07916,
            21.14111
          ],
          [
            79.07941,
            21.14117
          ],
          [
            79.0798,
            21.14125
          ],
          [
            79.08002,
            21.14127
          ],
          [
            79.08032,
            21.14127
          ],
          [
            79.08076,
            21.14127
          ],
          [
            79.08143,
            21.14128
          ],
          [
            79.08199,
            21.14131
          ],
          [
            79.0824,
            21.1414
          ],
          [
            79.08287,
            21.14154
          ],
          [
            79.08287,
            21.14154
          ],
          [
            79.08502,
            21.14219
          ],
          [
            79.08695,
            21.1428
          ],
          [
            79.08717,
            21.14287
          ],
          [
            79.0873,
            21.14293
          ],
          [
            79.0874,
            21.14298
          ],
          [
            79.08749,
            21.14304
          ],
          [
            79.08759,
            21.1431
          ],
          [
            79.08769,
            21.14318
          ],
          [
            79.08786,
            21.14331
          ],
          [
            79.08853,
            21.14391
          ],
          [
            79.08886,
            21.14419
          ],
          [
            79.08911,
            21.14441
          ],
          [
            79.08933,
            21.14461
          ],
          [
            79.08942,
            21.14471
          ],
          [
            79.08949,
            21.1448
          ],
          [
            79.08954,
            21.14489
          ],
          [
            79.08956,
            21.14495
          ],
          [
            79.0896,
            21.14503
          ],
          [
            79.08963,
            21.14511
          ],
          [
            79.08966,
            21.1452
          ],
          [
            79.08968,
            21.14533
          ],
          [
            79.0897,
            21.1455
          ],
          [
            79.08976,
            21.14603
          ],
          [
            79.08979,
            21.14639
          ],
          [
            79.08984,
            21.14681
          ],
          [
            79.08989,
            21.14726
          ],
          [
            79.09001,
            21.14827
          ],
          [
            79.09011,
            21.14899
          ],
          [
            79.09028,
            21.15019
          ],
          [
            79.09046,
            21.15137
          ],
          [
            79.09051,
            21.15189
          ],
          [
            79.09058,
            21.15239
          ],
          [
            79.09061,
            21.15255
          ],
          [
            79.09064,
            21.15264
          ],
          [
            79.09067,
            21.15273
          ],
          [
            79.09072,
            21.15282
          ],
          [
            79.09077,
            21.1529
          ],
          [
            79.09083,
            21.15298
          ],
          [
            79.0909,
            21.15305
          ],
          [
            79.09097,
            21.15312
          ],
          [
            79.09105,
            21.15318
          ],
          [
            79.09113,
            21.15324
          ],
          [
            79.09122,
            21.15328
          ],
          [
            79.09132,
            21.15332
          ],
          [
            79.09141,
            21.15336
          ],
          [
            79.09151,
            21.15338
          ],
          [
            79.09161,
            21.1534
          ],
          [
            79.09171,
            21.1534
          ],
          [
            79.09184,
            21.15341
          ],
          [
            79.09252,
            21.1534
          ],
          [
            79.09277,
            21.15339
          ],
          [
            79.09295,
            21.15337
          ],
          [
            79.09309,
            21.15336
          ],
          [
            79.09323,
            21.15333
          ],
          [
            79.09337,
            21.1533
          ],
          [
            79.09351,
            21.15327
          ],
          [
            79.09441,
            21.15304
          ],
          [
            79.0949,
            21.15292
          ],
          [
            79.09537,
            21.15283
          ],
          [
            79.09548,
            21.15281
          ],
          [
            79.0957,
            21.15276
          ],
          [
            79.09611,
            21.15265
          ],
          [
            79.09643,
            21.15257
          ],
          [
            79.09672,
            21.15249
          ],
          [
            79.09705,
            21.15239
          ],
          [
            79.09756,
            21.15221
          ],
          [
            79.09882,
            21.15186
          ],
          [
            79.09944,
            21.15171
          ],
          [
            79.10037,
            21.15146
          ],
          [
            79.10087,
            21.15133
          ],
          [
            79.10129,
            21.15125
          ],
          [
            79.10238,
            21.15111
          ],
          [
            79.10292,
            21.15105
          ],
          [
            79.10343,
            21.15099
          ],
          [
            79.10371,
            21.15094
          ],
          [
            79.10408,
            21.15088
          ],
          [
            79.10459,
            21.15077
          ],
          [
            79.10501,
            21.15067
          ],
          [
            79.10544,
            21.15058
          ],
          [
            79.10581,
            21.1505
          ],
          [
            79.1061,
            21.15043
          ],
          [
            79.10696,
            21.15022
          ],
          [
            79.10794,
            21.14997
          ],
          [
            79.10876,
            21.14979
          ],
          [
            79.10902,
            21.14975
          ],
          [
            79.10919,
            21.14972
          ],
          [
            79.10952,
            21.14968
          ],
          [
            79.11039,
            21.14964
          ],
          [
            79.1113,
            21.14959
          ],
          [
            79.11155,
            21.14959
          ],
          [
            79.11182,
            21.14958
          ],
          [
            79.11199,
            21.14956
          ],
          [
            79.1122,
            21.14953
          ],
          [
            79.11237,
            21.1495
          ],
          [
            79.1126,
            21.14944
          ],
          [
            79.11299,
            21.14935
          ],
          [
            79.11331,
            21.14928
          ],
          [
            79.11388,
            21.14918
          ],
          [
            79.1142,
            21.14913
          ],
          [
            79.11463,
            21.14908
          ],
          [
            79.11507,
            21.14905
          ],
          [
            79.11533,
            21.14902
          ],
          [
            79.11592,
            21.14895
          ],
          [
            79.11631,
            21.1489
          ],
          [
            79.11666,
            21.14887
          ],
          [
            79.11703,
            21.14886
          ],
          [
            79.1175,
            21.14884
          ],
          [
            79.11778,
            21.14883
          ],
          [
            79.11823,
            21.1488
          ],
          [
            79.12591,
            21.14843
          ],
          [
            79.12949,
            21.1483
          ],
          [
            79.1313,
            21.14821
          ],
          [
            79.13491,
            21.14806
          ],
          [
            79.1364,
            21.148
          ],
          [
            79.13745,
            21.14794
          ],
          [
            79.13803,
            21.14792
          ],
          [
            79.14004,
            21.14795
          ],
          [
            79.1415,
            21.14798
          ],
          [
            79.14361,
            21.14808
          ],
          [
            79.14505,
            21.14813
          ],
          [
            79.14536,
            21.14817
          ],
          [
            79.1459,
            21.1483
          ],
          [
            79.1463,
            21.14846
          ],
          [
            79.14653,
            21.14858
          ],
          [
            79.14679,
            21.14873
          ],
          [
            79.14722,
            21.14899
          ],
          [
            79.14775,
            21.14934
          ],
          [
            79.14826,
            21.14971
          ],
          [
            79.14846,
            21.14988
          ],
          [
            79.14881,
            21.15019
          ]
        ]
      }
    },
    {
      "type": "Feature",
      "properties": {
        "name": "Nagpur Metro - Orange Line (North-South Corridor)",
        "line": "Orange Line",
        "color": "#ff6a00",
        "from": "Automotive Square",
        "to": "Khapri / Metro City",
        "points": 317
      },
      "geometry": {
        "type": "LineString",
        "coordinates": [
          [
            79.1197452,
            21.1858323
          ],
          [
            79.1186951,
            21.1849357
          ],
          [
            79.1182861,
            21.1846444
          ],
          [
            79.1179602,
            21.1844343
          ],
          [
            79.1177456,
            21.1843155
          ],
          [
            79.1173151,
            21.1841004
          ],
          [
            79.1167894,
            21.1838365
          ],
          [
            79.1165887,
            21.1837335
          ],
          [
            79.1161564,
            21.1835114
          ],
          [
            79.1157205,
            21.1832526
          ],
          [
            79.1132731,
            21.1816967
          ],
          [
            79.1098087,
            21.1794472
          ],
          [
            79.1091897,
            21.1790466
          ],
          [
            79.1085591,
            21.1786682
          ],
          [
            79.1080546,
            21.1783392
          ],
          [
            79.1071744,
            21.1777428
          ],
          [
            79.1056967,
            21.1767854
          ],
          [
            79.1041911,
            21.1758383
          ],
          [
            79.1015338,
            21.1741976
          ],
          [
            79.1007062,
            21.1736817
          ],
          [
            79.100389,
            21.1734785
          ],
          [
            79.0986,
            21.1723323
          ],
          [
            79.0982526,
            21.1720855
          ],
          [
            79.0979406,
            21.1718437
          ],
          [
            79.0975524,
            21.1715105
          ],
          [
            79.0972364,
            21.1712429
          ],
          [
            79.0968523,
            21.1709148
          ],
          [
            79.0965943,
            21.1707229
          ],
          [
            79.0962861,
            21.1705408
          ],
          [
            79.0960652,
            21.1704515
          ],
          [
            79.0958736,
            21.1703736
          ],
          [
            79.0954696,
            21.1702277
          ],
          [
            79.0949765,
            21.1700456
          ],
          [
            79.0948068,
            21.1699846
          ],
          [
            79.0944597,
            21.1698501
          ],
          [
            79.0942738,
            21.169767
          ],
          [
            79.0940092,
            21.1696344
          ],
          [
            79.0935286,
            21.1693484
          ],
          [
            79.0929921,
            21.1690236
          ],
          [
            79.0923831,
            21.1686553
          ],
          [
            79.0916591,
            21.1682178
          ],
          [
            79.0913967,
            21.1680532
          ],
          [
            79.0912923,
            21.1679887
          ],
          [
            79.0911463,
            21.1678693
          ],
          [
            79.090986,
            21.1677234
          ],
          [
            79.0908457,
            21.1675739
          ],
          [
            79.0907328,
            21.167451
          ],
          [
            79.0904469,
            21.1671315
          ],
          [
            79.0902919,
            21.166969
          ],
          [
            79.0899571,
            21.1666471
          ],
          [
            79.0896717,
            21.166404
          ],
          [
            79.0894536,
            21.1662191
          ],
          [
            79.0892288,
            21.1660405
          ],
          [
            79.0890638,
            21.165922
          ],
          [
            79.0878604,
            21.1650907
          ],
          [
            79.0865247,
            21.164157
          ],
          [
            79.086314,
            21.1640117
          ],
          [
            79.0862252,
            21.1639058
          ],
          [
            79.0858998,
            21.1637262
          ],
          [
            79.0846972,
            21.1628355
          ],
          [
            79.0844715,
            21.1626669
          ],
          [
            79.0843816,
            21.1625887
          ],
          [
            79.0842468,
            21.1624674
          ],
          [
            79.0841409,
            21.1623436
          ],
          [
            79.0840061,
            21.1621729
          ],
          [
            79.083868,
            21.1619265
          ],
          [
            79.0837084,
            21.1616376
          ],
          [
            79.083479,
            21.1612461
          ],
          [
            79.0832135,
            21.1607334
          ],
          [
            79.0830325,
            21.1603331
          ],
          [
            79.0828729,
            21.1599367
          ],
          [
            79.0827347,
            21.1595502
          ],
          [
            79.082639,
            21.1592259
          ],
          [
            79.0824122,
            21.1583641
          ],
          [
            79.0823257,
            21.1579493
          ],
          [
            79.0821742,
            21.1572639
          ],
          [
            79.0820695,
            21.1567311
          ],
          [
            79.0819032,
            21.1561012
          ],
          [
            79.0818272,
            21.1558086
          ],
          [
            79.08176,
            21.1555467
          ],
          [
            79.0815732,
            21.1548011
          ],
          [
            79.0814575,
            21.1543687
          ],
          [
            79.0813456,
            21.1538875
          ],
          [
            79.0810042,
            21.1525273
          ],
          [
            79.0809337,
            21.1522125
          ],
          [
            79.0808773,
            21.1518946
          ],
          [
            79.0808505,
            21.1515469
          ],
          [
            79.0808679,
            21.1510228
          ],
          [
            79.0808719,
            21.1505438
          ],
          [
            79.0808505,
            21.150126
          ],
          [
            79.0808318,
            21.1499335
          ],
          [
            79.0808196,
            21.1498071
          ],
          [
            79.080644,
            21.1486576
          ],
          [
            79.0805997,
            21.1483774
          ],
          [
            79.0805809,
            21.1480485
          ],
          [
            79.0805756,
            21.1477099
          ],
          [
            79.0806151,
            21.1466945
          ],
          [
            79.0806309,
            21.1462434
          ],
          [
            79.0806594,
            21.1454514
          ],
          [
            79.080683,
            21.1448804
          ],
          [
            79.0807062,
            21.144318
          ],
          [
            79.0807663,
            21.1441126
          ],
          [
            79.0808032,
            21.143969
          ],
          [
            79.0808496,
            21.1438444
          ],
          [
            79.0808986,
            21.1437349
          ],
          [
            79.0809964,
            21.1435767
          ],
          [
            79.0810809,
            21.1434612
          ],
          [
            79.0812096,
            21.1433246
          ],
          [
            79.0813464,
            21.1431977
          ],
          [
            79.0814804,
            21.1430851
          ],
          [
            79.0816387,
            21.1429388
          ],
          [
            79.0818211,
            21.1427521
          ],
          [
            79.081942,
            21.1425805
          ],
          [
            79.0821921,
            21.1421216
          ],
          [
            79.0823441,
            21.1417914
          ],
          [
            79.0826131,
            21.1412004
          ],
          [
            79.0832325,
            21.139826
          ],
          [
            79.083344,
            21.1396215
          ],
          [
            79.0834037,
            21.1395332
          ],
          [
            79.0834708,
            21.1394494
          ],
          [
            79.0835448,
            21.1393707
          ],
          [
            79.0836251,
            21.1392977
          ],
          [
            79.0837115,
            21.1392306
          ],
          [
            79.0837866,
            21.1391804
          ],
          [
            79.0838652,
            21.1391346
          ],
          [
            79.0839468,
            21.1390938
          ],
          [
            79.0841167,
            21.1390224
          ],
          [
            79.0844272,
            21.1389188
          ],
          [
            79.0848764,
            21.1387734
          ],
          [
            79.0849981,
            21.1387242
          ],
          [
            79.0850905,
            21.1386807
          ],
          [
            79.0851866,
            21.1386242
          ],
          [
            79.0852771,
            21.1385603
          ],
          [
            79.0853615,
            21.1384894
          ],
          [
            79.085439,
            21.1384121
          ],
          [
            79.0855092,
            21.1383289
          ],
          [
            79.0855715,
            21.1382404
          ],
          [
            79.0856255,
            21.1381473
          ],
          [
            79.0856707,
            21.1380503
          ],
          [
            79.0857055,
            21.1379546
          ],
          [
            79.0857318,
            21.1378566
          ],
          [
            79.0857494,
            21.1377569
          ],
          [
            79.0857583,
            21.1376562
          ],
          [
            79.0857584,
            21.1375552
          ],
          [
            79.0857496,
            21.1374545
          ],
          [
            79.0857321,
            21.1373548
          ],
          [
            79.0857058,
            21.1372565
          ],
          [
            79.0856334,
            21.1370664
          ],
          [
            79.0852475,
            21.1363201
          ],
          [
            79.0846681,
            21.1351738
          ],
          [
            79.0841855,
            21.134239
          ],
          [
            79.083945,
            21.1337505
          ],
          [
            79.0838182,
            21.1334796
          ],
          [
            79.0836631,
            21.1331284
          ],
          [
            79.0835335,
            21.1328065
          ],
          [
            79.0833641,
            21.1323518
          ],
          [
            79.0832241,
            21.1319425
          ],
          [
            79.0831258,
            21.1316091
          ],
          [
            79.0829677,
            21.1310388
          ],
          [
            79.0828403,
            21.1304734
          ],
          [
            79.0828276,
            21.1304225
          ],
          [
            79.0827348,
            21.1301315
          ],
          [
            79.0826903,
            21.1298617
          ],
          [
            79.0826296,
            21.1294
          ],
          [
            79.0826046,
            21.129168
          ],
          [
            79.082585,
            21.1289817
          ],
          [
            79.0825344,
            21.1282001
          ],
          [
            79.0824615,
            21.1274742
          ],
          [
            79.0824456,
            21.1273398
          ],
          [
            79.08243,
            21.1272419
          ],
          [
            79.0824049,
            21.1271457
          ],
          [
            79.0823707,
            21.127052
          ],
          [
            79.0823275,
            21.1269616
          ],
          [
            79.0822758,
            21.1268752
          ],
          [
            79.0822159,
            21.1267935
          ],
          [
            79.0821483,
            21.1267171
          ],
          [
            79.0820737,
            21.1266468
          ],
          [
            79.0819925,
            21.126583
          ],
          [
            79.0819055,
            21.1265263
          ],
          [
            79.0818134,
            21.1264771
          ],
          [
            79.0817164,
            21.1264358
          ],
          [
            79.0816157,
            21.1264027
          ],
          [
            79.0815122,
            21.1263784
          ],
          [
            79.0814069,
            21.1263629
          ],
          [
            79.0813004,
            21.1263564
          ],
          [
            79.0811937,
            21.1263589
          ],
          [
            79.0810877,
            21.1263704
          ],
          [
            79.0809833,
            21.1263909
          ],
          [
            79.0808813,
            21.1264201
          ],
          [
            79.0807826,
            21.1264578
          ],
          [
            79.0806879,
            21.1265037
          ],
          [
            79.0805981,
            21.1265574
          ],
          [
            79.0805139,
            21.1266185
          ],
          [
            79.0803909,
            21.126729
          ],
          [
            79.07862,
            21.1286907
          ],
          [
            79.0785518,
            21.1287658
          ],
          [
            79.0784701,
            21.1288512
          ],
          [
            79.0783813,
            21.1289302
          ],
          [
            79.0782862,
            21.1290025
          ],
          [
            79.0781851,
            21.1290675
          ],
          [
            79.0780789,
            21.1291248
          ],
          [
            79.0779681,
            21.1291741
          ],
          [
            79.0778535,
            21.129215
          ],
          [
            79.0777358,
            21.1292473
          ],
          [
            79.0776156,
            21.1292708
          ],
          [
            79.0774939,
            21.1292854
          ],
          [
            79.0773713,
            21.1292909
          ],
          [
            79.0772509,
            21.1292875
          ],
          [
            79.0771311,
            21.1292753
          ],
          [
            79.0770127,
            21.1292545
          ],
          [
            79.0768964,
            21.1292251
          ],
          [
            79.0767828,
            21.1291874
          ],
          [
            79.0766728,
            21.1291415
          ],
          [
            79.076567,
            21.1290878
          ],
          [
            79.0764659,
            21.1290266
          ],
          [
            79.0763703,
            21.1289582
          ],
          [
            79.0762806,
            21.1288831
          ],
          [
            79.0761975,
            21.1288017
          ],
          [
            79.0761215,
            21.1287145
          ],
          [
            79.076053,
            21.128622
          ],
          [
            79.0759923,
            21.1285249
          ],
          [
            79.07594,
            21.1284236
          ],
          [
            79.075882,
            21.1282972
          ],
          [
            79.0756674,
            21.1276716
          ],
          [
            79.0752728,
            21.1264972
          ],
          [
            79.0750247,
            21.1259255
          ],
          [
            79.0747967,
            21.1253289
          ],
          [
            79.0734237,
            21.1217645
          ],
          [
            79.0729849,
            21.1206701
          ],
          [
            79.0727351,
            21.1200463
          ],
          [
            79.0723426,
            21.1190005
          ],
          [
            79.0720891,
            21.1182155
          ],
          [
            79.0707514,
            21.113338
          ],
          [
            79.0701141,
            21.1108555
          ],
          [
            79.0697727,
            21.1095895
          ],
          [
            79.0696438,
            21.109126
          ],
          [
            79.0692365,
            21.1076401
          ],
          [
            79.0683405,
            21.1045775
          ],
          [
            79.0681431,
            21.103626
          ],
          [
            79.0680202,
            21.1031133
          ],
          [
            79.0676537,
            21.1017277
          ],
          [
            79.0663005,
            21.0963549
          ],
          [
            79.0659828,
            21.0952332
          ],
          [
            79.0643916,
            21.0887565
          ],
          [
            79.0637683,
            21.0862196
          ],
          [
            79.0633908,
            21.084684
          ],
          [
            79.0631868,
            21.0838857
          ],
          [
            79.0630808,
            21.0835491
          ],
          [
            79.062999,
            21.0833676
          ],
          [
            79.0629441,
            21.0832563
          ],
          [
            79.0628368,
            21.0830948
          ],
          [
            79.0626986,
            21.0829159
          ],
          [
            79.0625368,
            21.0827532
          ],
          [
            79.0623605,
            21.0825805
          ],
          [
            79.0621443,
            21.0823522
          ],
          [
            79.0619698,
            21.0821337
          ],
          [
            79.0618058,
            21.0818417
          ],
          [
            79.0607801,
            21.0796143
          ],
          [
            79.0605087,
            21.0790612
          ],
          [
            79.0600619,
            21.0781232
          ],
          [
            79.0599775,
            21.077958
          ],
          [
            79.0598515,
            21.0776477
          ],
          [
            79.0597455,
            21.0773211
          ],
          [
            79.0596382,
            21.0768255
          ],
          [
            79.0595725,
            21.0764739
          ],
          [
            79.0593727,
            21.0752513
          ],
          [
            79.0590884,
            21.0735319
          ],
          [
            79.0590079,
            21.0732015
          ],
          [
            79.0586807,
            21.0724031
          ],
          [
            79.0580329,
            21.0711717
          ],
          [
            79.0579058,
            21.0709164
          ],
          [
            79.0576869,
            21.0703795
          ],
          [
            79.057467,
            21.0698815
          ],
          [
            79.0568608,
            21.0683522
          ],
          [
            79.0562096,
            21.0668799
          ],
          [
            79.0558137,
            21.0660456
          ],
          [
            79.0556266,
            21.0657218
          ],
          [
            79.0536784,
            21.0613038
          ],
          [
            79.0535107,
            21.0608933
          ],
          [
            79.0518907,
            21.0573703
          ],
          [
            79.0517839,
            21.0571371
          ],
          [
            79.0512878,
            21.0560537
          ],
          [
            79.0511623,
            21.0558186
          ],
          [
            79.0503503,
            21.0542509
          ],
          [
            79.0499804,
            21.0534766
          ],
          [
            79.0496456,
            21.0527632
          ],
          [
            79.0495317,
            21.0525142
          ],
          [
            79.0494077,
            21.052288
          ],
          [
            79.0491772,
            21.0519066
          ],
          [
            79.0487922,
            21.0513543
          ],
          [
            79.048685,
            21.0511871
          ],
          [
            79.04852,
            21.0509021
          ],
          [
            79.0480424,
            21.0498382
          ],
          [
            79.0479458,
            21.0496232
          ],
          [
            79.0478185,
            21.0493536
          ],
          [
            79.0475629,
            21.0488123
          ],
          [
            79.0475168,
            21.0487104
          ],
          [
            79.0471992,
            21.048009
          ],
          [
            79.04714,
            21.0478539
          ],
          [
            79.0470439,
            21.0476298
          ],
          [
            79.0469544,
            21.047354
          ],
          [
            79.0468358,
            21.0468796
          ],
          [
            79.0467277,
            21.0464743
          ],
          [
            79.0466073,
            21.0461273
          ],
          [
            79.0463655,
            21.0455105
          ],
          [
            79.0459228,
            21.0444734
          ],
          [
            79.0457505,
            21.0440062
          ],
          [
            79.0456354,
            21.0436982
          ],
          [
            79.0455295,
            21.0434351
          ],
          [
            79.045416,
            21.043172
          ],
          [
            79.0451974,
            21.0426923
          ],
          [
            79.0451606,
            21.0426108
          ],
          [
            79.0439996,
            21.0400585
          ],
          [
            79.0439064,
            21.039857
          ],
          [
            79.0434913,
            21.0388537
          ],
          [
            79.0433964,
            21.0386298
          ],
          [
            79.0433639,
            21.0385533
          ]
        ]
      }
    }
  ]
}